[{"OBJECT_NAME":"GLOBALSTAR M073","OBJECT_ID":"2010-054F","EPOCH":"2026-03-09T23:43:39.055872","MEAN_MOTION":12.62269826,"ECCENTRICITY":5.635e-5,"INCLINATION":52.0093,"RA_OF_ASC_NODE":6.2531,"ARG_OF_PERICENTER":96.9542,"MEAN_ANOMALY":341.8173,"EPHEMERIS_TYPE":0,"CLASSIFICATION_TYPE":"U","NORAD_CAT_ID":37193,"ELEMENT_SET_NO":999,"REV_AT_EPOCH":71140,"BSTAR":6.5674016e-5,"MEAN_MOTION_DOT":-9.2e-7,"MEAN_MOTION_DDOT":0},{"OBJECT_NAME":"COSMOS 1999","OBJECT_ID":"1989-009F","EPOCH":"2026-03-09T23:56:34.019808","MEAN_MOTION":12.65747613,"ECCENTRICITY":0.00207373,"INCLINATION":82.6202,"RA_OF_ASC_NODE":30.0791,"ARG_OF_PERICENTER":88.638,"MEAN_ANOMALY":340.0103,"EPHEMERIS_TYPE":0,"CLASSIFICATION_TYPE":"U","NORAD_CAT_ID":19790,"ELEMENT_SET_NO":999,"REV_AT_EPOCH":71270,"BSTAR":0.00013845836,"MEAN_MOTION_DOT":3.7e-7,"MEAN_MOTION_DDOT":0}]
